[{"OBJECT_NAME":"ONEWEB-0712","OBJECT_ID":"2022-166AQ","EPOCH":"2025-11-12T03:57:08.202528","MEAN_MOTION":13.16593728,"ECCENTRICITY":0.00020353,"INCLINATION":87.9014,"RA_OF_ASC_NODE":271.9907,"ARG_OF_PERICENTER":97.225,"MEAN_ANOMALY":262.9112,"EPHEMERIS_TYPE":0,"CLASSIFICATION_TYPE":"U","NORAD_CAT_ID":54680,"ELEMENT_SET_NO":999,"REV_AT_EPOCH":14350,"BSTAR":-0.0005560959,"MEAN_MOTION_DOT":-2.0e-6,"MEAN_MOTION_DDOT":0},{"OBJECT_NAME":"ONEWEB-0714","OBJECT_ID":"2022-166AR","EPOCH":"2025-11-12T07:17:28.130784","MEAN_MOTION":13.21824654,"ECCENTRICITY":0.00017252,"INCLINATION":87.918,"RA_OF_ASC_NODE":287.2481,"ARG_OF_PERICENTER":90.0541,"MEAN_ANOMALY":270.079,"EPHEMERIS_TYPE":0,"CLASSIFICATION_TYPE":"U","NORAD_CAT_ID":54681,"ELEMENT_SET_NO":999,"REV_AT_EPOCH":14288,"BSTAR":4.961875e-6,"MEAN_MOTION_DOT":1.5e-7,"MEAN_MOTION_DDOT":0},{"OBJECT_NAME":"ONEWEB-0532","OBJECT_ID":"2023-004A","EPOCH":"2025-11-12T07:28:33.912768","MEAN_MOTION":13.17649732,"ECCENTRICITY":0.00013221,"INCLINATION":87.9138,"RA_OF_ASC_NODE":48.9834,"ARG_OF_PERICENTER":92.8688,"MEAN_ANOMALY":267.2594,"EPHEMERIS_TYPE":0,"CLASSIFICATION_TYPE":"U","NORAD_CAT_ID":55140,"ELEMENT_SET_NO":999,"REV_AT_EPOCH":13902,"BSTAR":0.00017871962,"MEAN_MOTION_DOT":8.2e-7,"MEAN_MOTION_DDOT":0},{"OBJECT_NAME":"ONEWEB-0533","OBJECT_ID":"2023-004B","EPOCH":"2025-11-12T06:11:08.608992","MEAN_MOTION":13.12441983,"ECCENTRICITY":0.00016901,"INCLINATION":87.8975,"RA_OF_ASC_NODE":33.7588,"ARG_OF_PERICENTER":107.9936,"MEAN_ANOMALY":252.1376,"EPHEMERIS_TYPE":0,"CLASSIFICATION_TYPE":"U","NORAD_CAT_ID":55141,"ELEMENT_SET_NO":999,"REV_AT_EPOCH":13960,"BSTAR":-0.00072979184,"MEAN_MOTION_DOT":-2.5e-6,"MEAN_MOTION_DDOT":0},{"OBJECT_NAME":"ONEWEB-0541","OBJECT_ID":"2023-004C","EPOCH":"2025-11-12T06:29:37.317120","MEAN_MOTION":13.11420828,"ECCENTRICITY":0.00015943,"INCLINATION":87.8865,"RA_OF_ASC_NODE":64.2429,"ARG_OF_PERICENTER":96.5506,"MEAN_ANOMALY":263.5803,"EPHEMERIS_TYPE":0,"CLASSIFICATION_TYPE":"U","NORAD_CAT_ID":55142,"ELEMENT_SET_NO":999,"REV_AT_EPOCH":13751,"BSTAR":-0.00014880011,"MEAN_MOTION_DOT":-4.0e-7,"MEAN_MOTION_DDOT":0},{"OBJECT_NAME":"ONEWEB-0543","OBJECT_ID":"2023-004D","EPOCH":"2025-11-12T03:46:07.038624","MEAN_MOTION":13.18687423,"ECCENTRICITY":0.00019943,"INCLINATION":87.9198,"RA_OF_ASC_NODE":18.6063,"ARG_OF_PERICENTER":106.3103,"MEAN_ANOMALY":253.8249,"EPHEMERIS_TYPE":0,"CLASSIFICATION_TYPE":"U","NORAD_CAT_ID":55143,"ELEMENT_SET_NO":999,"REV_AT_EPOCH":14109,"BSTAR":5.4687031e-5,"MEAN_MOTION_DOT":3.4e-7,"MEAN_MOTION_DDOT":0},{"OBJECT_NAME":"ONEWEB-0544","OBJECT_ID":"2023-004E","EPOCH":"2025-11-12T05:25:52.499712","MEAN_MOTION":13.18688116,"ECCENTRICITY":0.00019827,"INCLINATION":87.9198,"RA_OF_ASC_NODE":18.5823,"ARG_OF_PERICENTER":100.1459,"MEAN_ANOMALY":259.9897,"EPHEMERIS_TYPE":0,"CLASSIFICATION_TYPE":"U","NORAD_CAT_ID":55144,"ELEMENT_SET_NO":999,"REV_AT_EPOCH":14110,"BSTAR":0.00015424144,"MEAN_MOTION_DOT":7.4e-7,"MEAN_MOTION_DDOT":0},{"OBJECT_NAME":"ONEWEB-0560","OBJECT_ID":"2023-004F","EPOCH":"2025-11-12T03:27:07.006176","MEAN_MOTION":13.18687514,"ECCENTRICITY":0.00021324,"INCLINATION":87.9209,"RA_OF_ASC_NODE":18.5837,"ARG_OF_PERICENTER":99.138,"MEAN_ANOMALY":260.9993,"EPHEMERIS_TYPE":0,"CLASSIFICATION_TYPE":"U","NORAD_CAT_ID":55145,"ELEMENT_SET_NO":999,"REV_AT_EPOCH":14110,"BSTAR":0.00015963955,"MEAN_MOTION_DOT":7.6e-7,"MEAN_MOTION_DDOT":0},{"OBJECT_NAME":"ONEWEB-0565","OBJECT_ID":"2023-004G","EPOCH":"2025-11-12T03:17:36.646944","MEAN_MOTION":13.18688198,"ECCENTRICITY":0.00019907,"INCLINATION":87.9202,"RA_OF_ASC_NODE":18.6342,"ARG_OF_PERICENTER":85.1214,"MEAN_ANOMALY":275.0145,"EPHEMERIS_TYPE":0,"CLASSIFICATION_TYPE":"U","NORAD_CAT_ID":55146,"ELEMENT_SET_NO":999,"REV_AT_EPOCH":14109,"BSTAR":0.00030002024,"MEAN_MOTION_DOT":1.31e-6,"MEAN_MOTION_DDOT":0},{"OBJECT_NAME":"ONEWEB-0567","OBJECT_ID":"2023-004H","EPOCH":"2025-11-12T03:08:06.602208","MEAN_MOTION":13.18687686,"ECCENTRICITY":0.00020846,"INCLINATION":87.9206,"RA_OF_ASC_NODE":18.5997,"ARG_OF_PERICENTER":90.5967,"MEAN_ANOMALY":269.5404,"EPHEMERIS_TYPE":0,"CLASSIFICATION_TYPE":"U","NORAD_CAT_ID":55147,"ELEMENT_SET_NO":999,"REV_AT_EPOCH":14109,"BSTAR":0.00024549146,"MEAN_MOTION_DOT":1.1e-6,"MEAN_MOTION_DDOT":0},{"OBJECT_NAME":"ONEWEB-0569","OBJECT_ID":"2023-004J","EPOCH":"2025-11-12T03:07:56.343072","MEAN_MOTION":13.13469093,"ECCENTRICITY":0.00027358,"INCLINATION":87.9026,"RA_OF_ASC_NODE":3.3483,"ARG_OF_PERICENTER":90.8891,"MEAN_ANOMALY":269.2552,"EPHEMERIS_TYPE":0,"CLASSIFICATION_TYPE":"U","NORAD_CAT_ID":55148,"ELEMENT_SET_NO":999,"REV_AT_EPOCH":14168,"BSTAR":0.0011048534,"MEAN_MOTION_DOT":4.16e-6,"MEAN_MOTION_DDOT":0},{"OBJECT_NAME":"ONEWEB-0570","OBJECT_ID":"2023-004K","EPOCH":"2025-11-12T04:43:08.062176","MEAN_MOTION":13.18687112,"ECCENTRICITY":0.0001483,"INCLINATION":87.9204,"RA_OF_ASC_NODE":18.5861,"ARG_OF_PERICENTER":83.5734,"MEAN_ANOMALY":276.5567,"EPHEMERIS_TYPE":0,"CLASSIFICATION_TYPE":"U","NORAD_CAT_ID":55149,"ELEMENT_SET_NO":999,"REV_AT_EPOCH":14109,"BSTAR":-0.00020095492,"MEAN_MOTION_DOT":-6.6e-7,"MEAN_MOTION_DDOT":0},{"OBJECT_NAME":"ONEWEB-0571","OBJECT_ID":"2023-004L","EPOCH":"2025-11-12T04:33:37.946592","MEAN_MOTION":13.18685635,"ECCENTRICITY":0.00026724,"INCLINATION":87.9204,"RA_OF_ASC_NODE":18.5889,"ARG_OF_PERICENTER":76.2187,"MEAN_ANOMALY":283.9242,"EPHEMERIS_TYPE":0,"CLASSIFICATION_TYPE":"U","NORAD_CAT_ID":55150,"ELEMENT_SET_NO":999,"REV_AT_EPOCH":14110,"BSTAR":0.00015633657,"MEAN_MOTION_DOT":7.5e-7,"MEAN_MOTION_DDOT":0},{"OBJECT_NAME":"ONEWEB-0572","OBJECT_ID":"2023-004M","EPOCH":"2025-11-12T06:22:58.346976","MEAN_MOTION":13.1765118,"ECCENTRICITY":0.00017279,"INCLINATION":87.9139,"RA_OF_ASC_NODE":49.0019,"ARG_OF_PERICENTER":95.1946,"MEAN_ANOMALY":264.9383,"EPHEMERIS_TYPE":0,"CLASSIFICATION_TYPE":"U","NORAD_CAT_ID":55151,"ELEMENT_SET_NO":999,"REV_AT_EPOCH":13891,"BSTAR":6.8122496e-5,"MEAN_MOTION_DOT":3.9e-7,"MEAN_MOTION_DDOT":0},{"OBJECT_NAME":"ONEWEB-0573","OBJECT_ID":"2023-004N","EPOCH":"2025-11-12T04:24:07.459488","MEAN_MOTION":13.18688077,"ECCENTRICITY":0.00020076,"INCLINATION":87.9198,"RA_OF_ASC_NODE":18.5968,"ARG_OF_PERICENTER":74.5924,"MEAN_ANOMALY":285.543,"EPHEMERIS_TYPE":0,"CLASSIFICATION_TYPE":"U","NORAD_CAT_ID":55152,"ELEMENT_SET_NO":999,"REV_AT_EPOCH":14109,"BSTAR":0.00022194518,"MEAN_MOTION_DOT":1.0e-6,"MEAN_MOTION_DDOT":0},{"OBJECT_NAME":"ONEWEB-0588","OBJECT_ID":"2023-004P","EPOCH":"2025-11-12T04:14:37.432896","MEAN_MOTION":13.18687585,"ECCENTRICITY":0.00016261,"INCLINATION":87.9214,"RA_OF_ASC_NODE":18.5898,"ARG_OF_PERICENTER":84.7793,"MEAN_ANOMALY":275.3525,"EPHEMERIS_TYPE":0,"CLASSIFICATION_TYPE":"U","NORAD_CAT_ID":55153,"ELEMENT_SET_NO":999,"REV_AT_EPOCH":14109,"BSTAR":7.0134068e-5,"MEAN_MOTION_DOT":4.1e-7,"MEAN_MOTION_DDOT":0},{"OBJECT_NAME":"ONEWEB-0598","OBJECT_ID":"2023-004Q","EPOCH":"2025-11-12T05:57:53.210592","MEAN_MOTION":13.11416404,"ECCENTRICITY":0.00021645,"INCLINATION":87.8853,"RA_OF_ASC_NODE":64.2772,"ARG_OF_PERICENTER":92.3258,"MEAN_ANOMALY":267.8118,"EPHEMERIS_TYPE":0,"CLASSIFICATION_TYPE":"U","NORAD_CAT_ID":55154,"ELEMENT_SET_NO":999,"REV_AT_EPOCH":13746,"BSTAR":-0.0010848434,"MEAN_MOTION_DOT":-3.72e-6,"MEAN_MOTION_DDOT":0}]
