ONEWEB-0712             
1 54680U 22166AQ  25316.16467827 -.00000200  00000+0 -55610-3 0  9991
2 54680  87.9014 271.9907 0002035  97.2250 262.9112 13.16593728143505
ONEWEB-0714             
1 54681U 22166AR  25316.30379781  .00000015  00000+0  49619-5 0  9995
2 54681  87.9180 287.2481 0001725  90.0541 270.0790 13.21824654142889
ONEWEB-0532             
1 55140U 23004A   25316.31150362  .00000082  00000+0  17872-3 0  9999
2 55140  87.9138  48.9834 0001322  92.8688 267.2594 13.17649732139021
ONEWEB-0533             
1 55141U 23004B   25316.25773853 -.00000250  00000+0 -72979-3 0  9997
2 55141  87.8975  33.7588 0001690 107.9936 252.1376 13.12441983139608
ONEWEB-0541             
1 55142U 23004C   25316.27057080 -.00000040  00000+0 -14880-3 0  9991
2 55142  87.8865  64.2429 0001594  96.5506 263.5803 13.11420828137512
ONEWEB-0543             
1 55143U 23004D   25316.15702591  .00000034  00000+0  54687-4 0  9994
2 55143  87.9198  18.6063 0001994 106.3103 253.8249 13.18687423141094
ONEWEB-0544             
1 55144U 23004E   25316.22630208  .00000074  00000+0  15424-3 0  9997
2 55144  87.9198  18.5823 0001982 100.1459 259.9897 13.18688116141109
ONEWEB-0560             
1 55145U 23004F   25316.14383109  .00000076  00000+0  15964-3 0  9995
2 55145  87.9209  18.5837 0002132  99.1380 260.9993 13.18687514141106
ONEWEB-0565             
1 55146U 23004G   25316.13722971  .00000131  00000+0  30002-3 0  9991
2 55146  87.9202  18.6342 0001990  85.1214 275.0145 13.18688198141097
ONEWEB-0567             
1 55147U 23004H   25316.13063197  .00000110  00000+0  24549-3 0  9996
2 55147  87.9206  18.5997 0002084  90.5967 269.5404 13.18687686141094
ONEWEB-0569             
1 55148U 23004J   25316.13051323  .00000416  00000+0  11049-2 0  9994
2 55148  87.9026   3.3483 0002735  90.8891 269.2552 13.13469093141680
ONEWEB-0570             
1 55149U 23004K   25316.19662109 -.00000066  00000+0 -20095-3 0  9996
2 55149  87.9204  18.5861 0001483  83.5734 276.5567 13.18687112141092
ONEWEB-0571             
1 55150U 23004L   25316.19002253  .00000075  00000+0  15634-3 0  9997
2 55150  87.9204  18.5889 0002672  76.2187 283.9242 13.18685635141108
ONEWEB-0572             
1 55151U 23004M   25316.26595309  .00000039  00000+0  68122-4 0  9996
2 55151  87.9139  49.0019 0001727  95.1946 264.9383 13.17651180138910
ONEWEB-0573             
1 55152U 23004N   25316.18341967  .00000100  00000+0  22195-3 0  9995
2 55152  87.9198  18.5968 0002007  74.5924 285.5430 13.18688077141090
ONEWEB-0588             
1 55153U 23004P   25316.17682214  .00000041  00000+0  70134-4 0  9999
2 55153  87.9214  18.5898 0001626  84.7793 275.3525 13.18687585141090
ONEWEB-0598             
1 55154U 23004Q   25316.24853253 -.00000372  00000+0 -10848-2 0  9994
2 55154  87.8853  64.2772 0002164  92.3258 267.8118 13.11416404137460
